SL-14 R/B               
1 19574U 88093B   24324.80905610  .00001011  00000+0  11562-3 0  9998
2 19574  82.5290 127.5755 0021186 165.2042 327.4874 14.84903352930549
SL-16 R/B               
1 19650U 88102B   24325.01061945 -.00000158  00000+0 -55769-4 0  9993
2 19650  71.0001  70.1902 0014022   3.7398 356.3827 14.16042536859974
INTERCOSMOS 24          
1 20261U 89080A   24325.08954227  .00001092  00000+0  32596-3 0  9998
2 20261  82.6094  52.9482 1191500 313.3672  37.3929 12.58496229606669
SL-14 R/B               
1 20262U 89080C   24325.42820456  .00001208  00000+0  36264-3 0  9998
2 20262  82.5895 117.6805 1232116 188.5087 169.3259 12.50021311600458
DELTA 1 R/B             
1 20323U 89089B   24324.97980267  .00000899  00000+0  23401-3 0  9995
2 20323  97.1200 235.5645 0069632 179.8607 180.2622 14.50009010847454
ARIANE 40 R/B           
1 20443U 90005H   24325.18402427  .00000732  00000+0  24942-3 0  9996
2 20443  98.3760  27.2839 0010154 185.0191 175.0897 14.39324128824799
DELTA 2 R/B(1)          
1 20453U 90008B   24325.13618255  .00042010  00000+0  12916-2 0  9995
2 20453  35.6179 313.2988 0175995 304.2563  54.1604 15.18864997853161
COSMOS 2058             
1 20465U 90010A   24325.45029465  .00005403  00000+0  36706-3 0  9994
2 20465  82.4836 152.3567 0013807 126.8619 233.3876 15.06115229891834
SL-14 R/B               
1 20466U 90010B   24325.44104928  .00000742  00000+0  88327-4 0  9990
2 20466  82.5027 352.5736 0021435  64.7528 295.5905 14.82866265879245
SL-14 R/B               
1 20511U 90018B   24325.41040509  .00000860  00000+0  10674-3 0  9990
2 20511  82.5194 306.1942 0015616 207.1153 152.9247 14.81458687873430
HST                     
1 20580U 90037B   24325.46438544  .00009348  00000+0  39860-3 0  9990
2 20580  28.4702  15.6587 0001680 303.6578  56.3855 15.21194783701088
SL-16 R/B               
1 20625U 90046B   24324.70362513 -.00000188  00000+0 -72239-4 0  9991
2 20625  70.9991 215.3862 0016352 301.4418  58.5105 14.14907655781201
COSMOS 2084             
1 20663U 90055A   24324.71222362  .00005055  00000+0  37351-3 0  9992
2 20663  62.7888 150.8020 0092448 134.8224 226.0437 15.01145933864896
SL-6 R/B(2)             
1 20666U 90055D   24324.90816561  .00005740  00000+0  45528-3 0  9992
2 20666  62.7851  64.5834 0061227 160.0465 200.3048 15.00145397866878
SL-8 R/B                
1 20775U 90078B   24325.04380289  .00019753  00000+0  72272-3 0  9992
2 20775  82.9101 311.5577 0441456 147.4320 215.4969 14.68182892739125
SL-8 R/B                
1 21088U 91006B   24325.09430858  .00000206  00000+0  19221-3 0  9993
2 21088  82.9415 163.0997 0021336 285.7107 222.6064 13.77393060699005
OKEAN-3                 
1 21397U 91039A   24325.28029133  .00005538  00000+0  43666-3 0  9996
2 21397  82.5193  75.0738 0015993 141.0135 219.2245 15.00478568814860
COSMOS 2151             
1 21422U 91042A   24324.69932509  .00002746  00000+0  23418-3 0  9994
2 21422  82.4982 180.8648 0011539 219.3912 140.6473 14.97334062792043
SL-14 R/B               
1 21423U 91042B   24325.36794127  .00000926  00000+0  11593-3 0  9991
2 21423  82.4909 304.7891 0017293   5.1593 354.9796 14.81173505803888
ERS-1                   
1 21574U 91050A   24325.34430966  .00000518  00000+0  18231-3 0  9996
2 21574  98.7881 320.6849 0032419 167.0082 193.1947 14.38885622747488
ARIANE 40 R/B           
1 21610U 91050F   24325.13237356  .00000794  00000+0  25334-3 0  9990
2 21610  98.2708  22.4500 0004255  78.4406 281.7262 14.42284967750843
INTERCOSMOS 25          
1 21819U 91086A   24324.86476177  .00003712  00000+0  73055-3 0  9991
2 21819  82.6064 236.6367 1497187  59.0391 314.9215 12.09635787439218
SL-8 R/B                
1 21876U 92008B   24324.65995557  .00000172  00000+0  16089-3 0  9995
2 21876  82.9263 261.0035 0035468  23.5705  95.1788 13.75883471644099
SL-8 R/B                
1 21938U 92020B   24325.07057458  .00000226  00000+0  21905-3 0  9997
2 21938  82.9283 146.2635 0029053 180.3018 317.7044 13.75463292636186
USA 81                  
1 21949U 92023A   24325.21503684  .00000366  00000+0  12891-3 0  9994
2 21949  85.0102  45.1408 0002686  97.1568 262.9929 14.32087415 26870
COSMOS 2219             
1 22219U 92076A   24324.84831576 -.00000045  00000+0  97868-6 0  9990
2 22219  71.0604 290.6115 0019357 213.6496 146.3399 14.13957803651251
SL-16 R/B               
1 22220U 92076B   24325.11838087  .00000232  00000+0  13967-3 0  9999
2 22220  70.9983 107.9678 0010625 100.1718  15.1669 14.16735785654949
COSMOS 2221             
1 22236U 92080A   24324.87109620  .00003470  00000+0  32810-3 0  9992
2 22236  82.5067  12.8757 0014481 351.1974   8.8990 14.93346874709855
SL-16 R/B               
1 22285U 92093B   24325.31410153 -.00000125  00000+0 -39587-4 0  9991
2 22285  71.0214 280.0246 0006505 296.1399  63.9054 14.15333595646353
COSMOS 2228             
1 22286U 92094A   24324.75353712  .00003288  00000+0  30527-3 0  9992
2 22286  82.5176 330.9942 0021023  99.3506 261.0093 14.93953705705066
SL-16 R/B               
1 22566U 93016B   24324.95509634  .00000072  00000+0  61731-4 0  9996
2 22566  71.0047 132.1925 0011698 316.8491  43.1714 14.15195013635017
COSMOS 2242             
1 22626U 93024A   24325.43078238  .00003068  00000+0  28791-3 0  9993
2 22626  82.5205 359.3021 0018812  99.2948 261.0401 14.93541499709847
SL-16 R/B               
1 22803U 93059B   24324.58865231  .00000270  00000+0  15786-3 0  9992
2 22803  70.9898 292.9338 0018614 220.4887 139.4853 14.17107977612483
ARIANE 40 R/B           
1 22830U 93061H   24325.41630991  .00000483  00000+0  19457-3 0  9996
2 22830  98.5547  31.0903 0009823 243.9613 116.0560 14.32411081626447
COSMOS 2278             
1 23087U 94023A   24324.87492178  .00000351  00000+0  20885-3 0  9993
2 23087  71.0539  88.3827 0008051  19.3808 340.7619 14.14208780577673
SL-16 R/B               
1 23088U 94023B   24325.00482325 -.00000110  00000+0 -32202-4 0  9995
2 23088  71.0006 347.7006 0005819 287.5291  72.5195 14.14915409579212
SL-16 R/B               
1 23343U 94074B   24324.67743358  .00000895  00000+0  12913-3 0  9997
2 23343  97.7682   2.4095 0006039 338.9587 112.6697 14.78582136617031
SL-16 R/B               
1 23405U 94077B   24324.32319489  .00000346  00000+0  20177-3 0  9997
2 23405  70.9825 272.4932 0003056 214.2061 145.8865 14.15461292548960
ARIANE 40+ R/B          
1 23561U 95021B   24325.14778571  .00000705  00000+0  24139-3 0  9993
2 23561  98.5108  30.5623 0007848 119.2695 270.1439 14.39219244551195
SL-16 R/B               
1 23705U 95058B   24324.73098829 -.00000201  00000+0 -78755-4 0  9995
2 23705  71.0203  97.3559 0010580 130.6960 229.5083 14.15399027500644
SL-16 R/B               
1 24298U 96051B   24325.38089916 -.00000152  00000+0 -55534-4 0  9991
2 24298  70.7860  98.7352 0013660 116.0224 244.2304 14.12456198454936
ORBVIEW 2 (SEASTAR)     
1 24883U 97037A   24324.94583588  .00000732  00000+0  27373-3 0  9992
2 24883  98.7973 107.4810 0002642  40.9332 319.2050 14.34917604440632
SL-16 R/B               
1 25400U 98043G   24324.91024845  .00000229  00000+0  11497-3 0  9990
2 25400  98.7629 265.7189 0009133 317.5808  42.4665 14.25869416371554
SL-16 R/B               
1 25407U 98045B   24325.04411642  .00000163  00000+0  10660-3 0  9997
2 25407  71.0105  99.6666 0006835  10.8087 349.3182 14.16079527360171
ISS (ZARYA)             
1 25544U 98067A   24325.69903498  .00023151  00000+0  41566-3 0  9990
2 25544  51.6388 259.9835 0007559 247.3062 182.1154 15.49754585482823
CZ-4B R/B               
1 25732U 99025C   24324.51078281  .00000127  00000+0  83028-4 0  9995
2 25732  98.7319   7.2935 0036119 270.2508 218.0210 14.18088513320950
OKEAN-O                 
1 25860U 99039A   24324.57479986  .00001246  00000+0  17512-3 0  9992
2 25860  98.0157  16.5789 0001903  86.3104 273.8325 14.79148734364218
SL-16 R/B               
1 25861U 99039B   24324.75756737  .00001110  00000+0  15109-3 0  9995
2 25861  98.0683  11.7688 0015059   1.6746 358.4514 14.80710047366550
DELTA 2 R/B             
1 25876U 99041E   24324.88029095  .00001749  00000+0  32462-3 0  9997
2 25876  51.7639  34.6760 0512452  29.3120 333.5552 14.09495966296009
HELIOS 1B               
1 25977U 99064A   24324.57313730  .00001968  00000+0  23544-3 0  9996
2 25977  98.2188 201.2994 0001902 119.1849 240.9555 14.85355734345973
TERRA                   
1 25994U 99068A   24325.48215722  .00000930  00000+0  20202-3 0  9998
2 25994  98.0293  24.2603 0001508 202.9391 213.9273 14.60240691325975
SL-16 R/B               
1 26070U 00006B   24325.14891708 -.00000129  00000+0 -41251-4 0  9995
2 26070  71.0038  15.5566 0016862 192.7159 167.3541 14.15713366281376
TITAN 4B R/B            
1 26474U 00047B   24325.43633622  .00005849  00000+0  41433-3 0  9992
2 26474  67.9916 289.3618 0048734 218.3826 141.3851 15.04541586321521
ENVISAT                 
1 27386U 02009A   24325.38780230  .00000296  00000+0  11019-3 0  9995
2 27386  98.3058 281.2259 0001332  81.9071  66.0800 14.38762682191036
IDEFIX & ARIANE 42P R/B 
1 27422U 02021B   24325.08315951  .00000706  00000+0  28765-3 0  9993
2 27422  98.5421 259.7612 0012475 140.0713 220.1390 14.30481710174250
AQUA                    
1 27424U 02022A   24325.51438833  .00002207  00000+0  46612-3 0  9998
2 27424  98.3511 275.7143 0001476  42.6159  21.4877 14.60362957199520
CZ-4B R/B               
1 27432U 02024C   24325.07166160  .00000141  00000+0  96336-4 0  9995
2 27432  98.9560   8.0039 0049258 289.9002  98.9449 14.14409604162224
MIDORI II (ADEOS-II)    
1 27597U 02056A   24324.88190312  .00000642  00000+0  27311-3 0  9998
2 27597  98.7118 271.0892 0000872  24.9683 335.1541 14.28705880142488
H-2A R/B                
1 27601U 02056E   24324.73854461  .00000505  00000+0  19316-3 0  9994
2 27601  98.2521 294.2850 0071605 136.7512 352.2378 14.33179594146062
CZ-4B R/B               
1 28059U 03049C   24324.71098165  .00000823  00000+0  20320-3 0  9994
2 28059  98.6338 291.6822 0047580 240.8814 118.7615 14.54263236117547
